{"type": "FeatureCollection", "features": [ {"type": "Feature", "properties": {"norad_id": 38755, "name": "SPOT 6", "group": "resource", "lat": 61.96276228071186, "lon": 36.5160223493184, "alt_km": 690.9660650481728, "timestamp": "2025-12-13T08:49:15.350396+00:00", "meta": {"OBJECT_NAME": "SPOT 6", "OBJECT_ID": "2012-047A", "EPOCH": "2025-12-13T00:18:03.064608", "MEAN_MOTION": 14.58604172, "ECCENTRICITY": 0.00011558, "INCLINATION": 98.1568, "RA_OF_ASC_NODE": 51.7917, "ARG_OF_PERICENTER": 98.3239, "MEAN_ANOMALY": 261.8091, "EPHEMERIS_TYPE": 0, "CLASSIFICATION_TYPE": "U", "NORAD_CAT_ID": 38755, "ELEMENT_SET_NO": 999, "REV_AT_EPOCH": 70591, "BSTAR": 0.00019052854, "MEAN_MOTION_DOT": 8.41e-06, "MEAN_MOTION_DDOT": 0}, "tle": {"line1": "1 38755U 12047A   25347.01253547  .00000841  00000+0  19053-3 0  9993", "line2": "2 38755  98.1568  51.7917 0001155  98.3239 261.8091 14.58604172705910"}}, "geometry": {"type": "Point", "coordinates": [36.5160223493184, 61.96276228071186]}}, {"type": "Feature", "properties": {"norad_id": 39019, "name": "PLEIADES 1B", "group": "resource", "lat": -38.060855379549714, "lon": 66.47451041027269, "alt_km": 704.715885840692, "timestamp": "2025-12-13T08:49:15.350406+00:00", "meta": {"OBJECT_NAME": "PLEIADES 1B", "OBJECT_ID": "2012-068A", "EPOCH": "2025-12-13T00:45:54.044928", "MEAN_MOTION": 14.58553817, "ECCENTRICITY": 0.00012287, "INCLINATION": 98.1788, "RA_OF_ASC_NODE": 59.6784, "ARG_OF_PERICENTER": 84.0976, "MEAN_ANOMALY": 276.0363, "EPHEMERIS_TYPE": 0, "CLASSIFICATION_TYPE": "U", "NORAD_CAT_ID": 39019, "ELEMENT_SET_NO": 999, "REV_AT_EPOCH": 69371, "BSTAR": 0.00019086653, "MEAN_MOTION_DOT": 8.42e-06, "MEAN_MOTION_DDOT": 0}, "tle": {"line1": "1 39019U 12068A   25347.03187552  .00000842  00000+0  19087-3 0  9992", "line2": "2 39019  98.1788  59.6784 0001228  84.0976 276.0363 14.58553817693711"}}, "geometry": {"type": "Point", "coordinates": [66.47451041027269, -38.060855379549714]}}, {"type": "Feature", "properties": {"norad_id": 39030, "name": "GOKTURK 2", "group": "resource", "lat": -34.44387299971118, "lon": 3.673306069488499, "alt_km": 650.7419729477588, "timestamp": "2025-12-13T08:49:15.350417+00:00", "meta": {"OBJECT_NAME": "GOKTURK 2", "OBJECT_ID": "2012-073A", "EPOCH": "2025-12-12T23:42:42.693696", "MEAN_MOTION": 14.75292595, "ECCENTRICITY": 0.00010069, "INCLINATION": 97.6895, "RA_OF_ASC_NODE": 188.6294, "ARG_OF_PERICENTER": 103.4417, "MEAN_ANOMALY": 256.6905, "EPHEMERIS_TYPE": 0, "CLASSIFICATION_TYPE": "U", "NORAD_CAT_ID": 39030, "ELEMENT_SET_NO": 999, "REV_AT_EPOCH": 69705, "BSTAR": 0.00020047793, "MEAN_MOTION_DOT": 1.311e-05, "MEAN_MOTION_DDOT": 0}, "tle": {"line1": "1 39030U 12073A   25346.98799414  .00001311  00000+0  20048-3 0  9991", "line2": "2 39030  97.6895 188.6294 0001006 103.4417 256.6905 14.75292595697055"}}, "geometry": {"type": "Point", "coordinates": [3.673306069488499, -34.44387299971118]}}, {"type": "Feature", "properties": {"norad_id": 39084, "name": "LANDSAT 8", "group": "resource", "lat": 50.81358715163272, "lon": -114.37045365723338, "alt_km": 697.2341370224867, "timestamp": "2025-12-13T08:49:15.350427+00:00", "meta": {"OBJECT_NAME": "LANDSAT 8", "OBJECT_ID": "2013-008A", "EPOCH": "2025-12-12T23:59:36.633984", "MEAN_MOTION": 14.57114446, "ECCENTRICITY": 0.00010922, "INCLINATION": 98.2073, "RA_OF_ASC_NODE": 55.0693, "ARG_OF_PERICENTER": 88.9847, "MEAN_ANOMALY": 271.1476, "EPHEMERIS_TYPE": 0, "CLASSIFICATION_TYPE": "U", "NORAD_CAT_ID": 39084, "ELEMENT_SET_NO": 999, "REV_AT_EPOCH": 67078, "BSTAR": 0.00015629457, "MEAN_MOTION_DOT": 6.59e-06, "MEAN_MOTION_DDOT": 0}, "tle": {"line1": "1 39084U 13008A   25346.99972956  .00000659  00000+0  15629-3 0  9997", "line2": "2 39084  98.2073  55.0693 0001092  88.9847 271.1476 14.57114446670782"}}, "geometry": {"type": "Point", "coordinates": [-114.37045365723338, 50.81358715163272]}}, {"type": "Feature", "properties": {"norad_id": 39086, "name": "SARAL", "group": "resource", "lat": 57.98144458010257, "lon": 157.36829737864892, "alt_km": 775.5393174160081, "timestamp": "2025-12-13T08:49:15.350437+00:00", "meta": {"OBJECT_NAME": "SARAL", "OBJECT_ID": "2013-009A", "EPOCH": "2025-12-13T00:09:58.243104", "MEAN_MOTION": 14.32757173, "ECCENTRICITY": 0.00028722, "INCLINATION": 98.5503, "RA_OF_ASC_NODE": 170.9339, "ARG_OF_PERICENTER": 108.1652, "MEAN_ANOMALY": 251.9845, "EPHEMERIS_TYPE": 0, "CLASSIFICATION_TYPE": "U", "NORAD_CAT_ID": 39086, "ELEMENT_SET_NO": 999, "REV_AT_EPOCH": 66894, "BSTAR": 9.0496906e-05, "MEAN_MOTION_DOT": 2.03e-06, "MEAN_MOTION_DDOT": 0}, "tle": {"line1": "1 39086U 13009A   25347.00692411  .00000203  00000+0  90497-4 0  9990", "line2": "2 39086  98.5503 170.9339 0002872 108.1652 251.9845 14.32757173668949"}}, "geometry": {"type": "Point", "coordinates": [157.36829737864892, 57.98144458010257]}}, {"type": "Feature", "properties": {"norad_id": 39150, "name": "GAOFEN-1", "group": "resource", "lat": -63.31084746775485, "lon": 74.11748408799757, "alt_km": 659.0515127643794, "timestamp": "2025-12-13T08:49:15.350447+00:00", "meta": {"OBJECT_NAME": "GAOFEN-1", "OBJECT_ID": "2013-018A", "EPOCH": "2025-12-13T00:58:52.533984", "MEAN_MOTION": 14.76536722, "ECCENTRICITY": 0.00182564, "INCLINATION": 97.9322, "RA_OF_ASC_NODE": 57.6944, "ARG_OF_PERICENTER": 142.0404, "MEAN_ANOMALY": 218.2097, "EPHEMERIS_TYPE": 0, "CLASSIFICATION_TYPE": "U", "NORAD_CAT_ID": 39150, "ELEMENT_SET_NO": 999, "REV_AT_EPOCH": 68077, "BSTAR": 0.00026538972, "MEAN_MOTION_DOT": 1.804e-05, "MEAN_MOTION_DDOT": 0}, "tle": {"line1": "1 39150U 13018A   25347.04088581  .00001804  00000+0  26539-3 0  9996", "line2": "2 39150  97.9322  57.6944 0018256 142.0404 218.2097 14.76536722680774"}}, "geometry": {"type": "Point", "coordinates": [74.11748408799757, -63.31084746775485]}}, {"type": "Feature", "properties": {"norad_id": 39160, "name": "VNREDSAT 1", "group": "resource", "lat": -28.008467615569472, "lon": 46.87562857963555, "alt_km": 683.3790590551789, "timestamp": "2025-12-13T08:49:15.350458+00:00", "meta": {"OBJECT_NAME": "VNREDSAT 1", "OBJECT_ID": "2013-021B", "EPOCH": "2025-12-13T00:45:12.205728", "MEAN_MOTION": 14.64923976, "ECCENTRICITY": 0.00013043, "INCLINATION": 97.9371, "RA_OF_ASC_NODE": 42.2956, "ARG_OF_PERICENTER": 77.711, "MEAN_ANOMALY": 282.424, "EPHEMERIS_TYPE": 0, "CLASSIFICATION_TYPE": "U", "NORAD_CAT_ID": 39160, "ELEMENT_SET_NO": 999, "REV_AT_EPOCH": 67303, "BSTAR": 0.00024051794, "MEAN_MOTION_DOT": 1.241e-05, "MEAN_MOTION_DDOT": 0}, "tle": {"line1": "1 39160U 13021B   25347.03139127  .00001241  00000+0  24052-3 0  9996", "line2": "2 39160  97.9371  42.2956 0001304  77.7110 282.4240 14.64923976673038"}}, "geometry": {"type": "Point", "coordinates": [46.87562857963555, -28.008467615569472]}}, {"type": "Feature", "properties": {"norad_id": 39227, "name": "ARIRANG-5 (KOMPSAT-5)", "group": "resource", "lat": 39.91815403771144, "lon": -1.9112335750033, "alt_km": 549.7905804431957, "timestamp": "2025-12-13T08:49:15.350468+00:00", "meta": {"OBJECT_NAME": "ARIRANG-5 (KOMPSAT-5)", "OBJECT_ID": "2013-042A", "EPOCH": "2025-12-13T00:13:19.022016", "MEAN_MOTION": 15.04507367, "ECCENTRICITY": 0.0003591, "INCLINATION": 97.6146, "RA_OF_ASC_NODE": 171.3092, "ARG_OF_PERICENTER": 54.8401, "MEAN_ANOMALY": 305.3161, "EPHEMERIS_TYPE": 0, "CLASSIFICATION_TYPE": "U", "NORAD_CAT_ID": 39227, "ELEMENT_SET_NO": 999, "REV_AT_EPOCH": 67586, "BSTAR": 0.00024443289, "MEAN_MOTION_DOT": 3.362e-05, "MEAN_MOTION_DDOT": 0}, "tle": {"line1": "1 39227U 13042A   25347.00924794  .00003362  00000+0  24443-3 0  9992", "line2": "2 39227  97.6146 171.3092 0003591  54.8401 305.3161 15.04507367675860"}}, "geometry": {"type": "Point", "coordinates": [-1.9112335750033, 39.91815403771144]}}, {"type": "Feature", "properties": {"norad_id": 39418, "name": "SKYSAT-A", "group": "resource", "lat": 11.38445764561123, "lon": -140.9411955063932, "alt_km": 526.8897843432051, "timestamp": "2025-12-13T08:49:15.350479+00:00", "meta": {"OBJECT_NAME": "SKYSAT-A", "OBJECT_ID": "2013-066C", "EPOCH": "2025-12-12T20:57:19.652832", "MEAN_MOTION": 15.11607279, "ECCENTRICITY": 0.00206559, "INCLINATION": 97.4113, "RA_OF_ASC_NODE": 37.0775, "ARG_OF_PERICENTER": 235.9337, "MEAN_ANOMALY": 123.9933, "EPHEMERIS_TYPE": 0, "CLASSIFICATION_TYPE": "U", "NORAD_CAT_ID": 39418, "ELEMENT_SET_NO": 999, "REV_AT_EPOCH": 66032, "BSTAR": 0.00033291864, "MEAN_MOTION_DOT": 5.619e-05, "MEAN_MOTION_DDOT": 0}, "tle": {"line1": "1 39418U 13066C   25346.87314413  .00005619  00000+0  33292-3 0  9994", "line2": "2 39418  97.4113  37.0775 0020655 235.9337 123.9933 15.11607279660327"}}, "geometry": {"type": "Point", "coordinates": [-140.9411955063932, 11.38445764561123]}}, {"type": "Feature", "properties": {"norad_id": 39419, "name": "DUBAISAT-2", "group": "resource", "lat": -56.011183519525105, "lon": -11.06021085139716, "alt_km": 541.1780118076222, "timestamp": "2025-12-13T08:49:15.350489+00:00", "meta": {"OBJECT_NAME": "DUBAISAT-2", "OBJECT_ID": "2013-066D", "EPOCH": "2025-12-12T23:31:07.799232", "MEAN_MOTION": 15.08365998, "ECCENTRICITY": 0.00106557, "INCLINATION": 97.4455, "RA_OF_ASC_NODE": 337.3799, "ARG_OF_PERICENTER": 320.6595, "MEAN_ANOMALY": 39.3859, "EPHEMERIS_TYPE": 0, "CLASSIFICATION_TYPE": "U", "NORAD_CAT_ID": 39419, "ELEMENT_SET_NO": 999, "REV_AT_EPOCH": 65830, "BSTAR": 0.00053384122, "MEAN_MOTION_DOT": 8.248e-05, "MEAN_MOTION_DDOT": 0}, "tle": {"line1": "1 39419U 13066D   25346.97995138  .00008248  00000+0  53384-3 0  9990", "line2": "2 39419  97.4455 337.3799 0010655 320.6595  39.3859 15.08365998658303"}}, "geometry": {"type": "Point", "coordinates": [-11.06021085139716, -56.011183519525105]}}]}